IRIDIUM 119             
1 42959U 17061E   25285.51822799 -.00000150  00000+0 -60486-4 0  9994
2 42959  86.3951 128.8126 0002314  87.8845 272.2615 14.34216724419318
IRIDIUM 107             
1 42960U 17061F   25285.11864369  .00000270  00000+0  89512-4 0  9993
2 42960  86.3957 128.9998 0002437  79.4263 280.7207 14.34217855419262
IRIDIUM 132             
1 42961U 17061G   25285.61336552 -.00000034  00000+0 -19141-4 0  9998
2 42961  86.3953 128.7737 0002079  83.3921 276.7511 14.34217129419330
IRIDIUM 136             
1 42962U 17061H   25285.50554126  .00000177  00000+0  56161-4 0  9995
2 42962  86.3952 128.8246 0002287  86.8630 273.2827 14.34217798419336
IRIDIUM 139             
1 42963U 17061J   25285.51188393  .00000207  00000+0  66706-4 0  9996
2 42963  86.3954 128.8801 0002220  80.8687 279.2760 14.34219326419341
IRIDIUM 125             
1 42964U 17061K   25285.28989239 -.00000002  00000+0 -79269-5 0  9993
2 42964  86.3959 129.0288 0002530  84.4062 275.7422 14.34217220419325
IRIDIUM 135             
1 43070U 17083A   25285.47332368  .00000078  00000+0  20871-4 0  9997
2 43070  86.3942  65.5526 0001884  93.5930 266.5482 14.34217506408645
IRIDIUM 138             
1 43071U 17083B   25285.63821627  .00000359  00000+0  12128-3 0  9994
2 43071  86.3956  65.1405 0002495  98.2191 261.9288 14.34214596408653
